     2.11           N: GPS NAV DATA                         RINEX VERSION / TYPE
teqc  2019Feb25                         20230504 17:05:24UTCPGM / RUN BY / DATE
Linux2.6.32-573.12.1.el6.x86_64|x86_64|gcc|Win64-MinGW64|=+ COMMENT
                                                            END OF HEADER
23 21 10 12  4  0  0.0 4.621362313628D-05-4.661160346586D-12 0.000000000000D+00
    4.700000000000D+01-6.440625000000D+01 4.153744448700D-09-1.885126314986D+00
   -3.313645720482D-06 1.781177939847D-03 8.899718523026D-06 5.153679843903D+03
    1.872000000000D+05 1.862645149231D-09 1.351773981235D+00 4.284083843231D-08
    9.655199592218D-01 2.115625000000D+02 2.729141177376D+00-7.791395971488D-09
    3.053698627377D-10 1.000000000000D+00 2.179000000000D+03 0.000000000000D+00
    2.000000000000D+00 0.000000000000D+00-8.381903171539D-09 4.700000000000D+01
    1.807260000000D+05 4.000000000000D+00
21 21 10 12  4  0  0.0 1.471908763051D-04 1.818989403546D-12 0.000000000000D+00
    3.900000000000D+01-8.087500000000D+01 4.659122642588D-09 9.460266987007D-01
   -4.887580871582D-06 2.410891302861D-02 4.835426807404D-06 5.153633623123D+03
    1.872000000000D+05 1.080334186554D-07 2.551999336902D-01-5.662441253662D-07
    9.586814433302D-01 2.869687500000D+02-1.073364166109D+00-8.474281559271D-09
   -1.646497154644D-10 1.000000000000D+00 2.179000000000D+03 0.000000000000D+00
    2.000000000000D+00 0.000000000000D+00-1.024454832077D-08 3.900000000000D+01
    1.823760000000D+05 4.000000000000D+00
 8 21 10 12  3 59 44.0-3.977585583925D-05-1.364242052659D-12 0.000000000000D+00
    2.000000000000D+00 4.012500000000D+01 4.581619414267D-09 9.094287264311D-01
    2.227723598480D-06 6.591595010832D-03 2.885237336159D-06 5.153666076660D+03
    1.871840000000D+05 1.024454832077D-07-7.341897883517D-01 8.009374141693D-08
    9.660680063702D-01 3.223125000000D+02 5.419787593622D-02-8.318560787161D-09
   -1.264338379054D-10 1.000000000000D+00 2.179000000000D+03 0.000000000000D+00
    2.000000000000D+00 0.000000000000D+00 5.122274160385D-09 2.000000000000D+00
    1.829880000000D+05 4.000000000000D+00
 7 21 10 12  4  0  0.0 2.609747461975D-04 6.366462912410D-12 0.000000000000D+00
    5.000000000000D+00 2.646875000000D+01 4.768055751518D-09-2.047628952216D+00
    1.102685928345D-06 1.527941331733D-02 8.191913366318D-06 5.153728561401D+03
    1.872000000000D+05 2.086162567139D-07-2.803176779839D+00-7.078051567078D-08
    9.516340783277D-01 2.123125000000D+02-2.303659817524D+00-7.817111328350D-09
   -8.178912113090D-11 1.000000000000D+00 2.179000000000D+03 0.000000000000D+00
    2.000000000000D+00 0.000000000000D+00-1.117587089539D-08 5.000000000000D+00
    1.852260000000D+05 4.000000000000D+00
 1 21 10 12  4  0  0.0 5.418267101049D-04-1.080024958355D-11 0.000000000000D+00
    6.500000000000D+01-8.065625000000D+01 3.905876981168D-09-1.423487957576D+00
   -4.144385457039D-06 1.106743642595D-02 5.424022674561D-06 5.153677759171D+03
    1.872000000000D+05 2.179294824600D-07 3.426276631774D-01 4.284083843231D-08
    9.859705416307D-01 2.868750000000D+02 8.901716042947D-01-7.856398679111D-09
   -1.332198348551D-10 1.000000000000D+00 2.179000000000D+03 0.000000000000D+00
    2.000000000000D+00 0.000000000000D+00 5.122274160385D-09 6.500000000000D+01
    1.860480000000D+05 4.000000000000D+00
